GALILEO 33              
1 67160U 25302A   25352.14605887 -.00000007  00000+0  00000+0 0  9994
2 67160  54.2406 107.2544 0008423 237.6458 122.2317  1.72906186    28
GALILEO B               
1 67161U 25302B   26002.75476967 -.00000025  00000+0  00000+0 0  9990
2 67161  54.2350 106.7647 0007180 268.5393  91.3592  1.72971423   303
GALILEO 33 (139)        
1 67162U 25302C   25356.18244914  .00000006  00000+0  00000+0 0  9992
2 67162  54.2447 107.1379 0000312 196.8367 159.4994  1.73130437   127
STARLINK-35755          
1 67163U 25303A   25351.60835648 -.00002699  85337-5  00000+0 0  9999
2 67163  43.0100  69.0834 0011500 323.6500   9.4800 16.01284782    10
STARLINK-36201          
1 67164U 25303B   25351.60835648 -.00002699  85337-5  00000+0 0  9990
2 67164  43.0100  69.0834 0011500 323.6500   9.4800 16.01284782    11
STARLINK-36186          
1 67165U 25303C   25351.60835648 -.00002699  85337-5  00000+0 0  9991
2 67165  43.0100  69.0834 0011500 323.6500   9.4800 16.01284782    12
STARLINK-36174          
1 67166U 25303D   25351.60835648 -.00002699  85337-5  00000+0 0  9992
2 67166  43.0100  69.0834 0011500 323.6500   9.4800 16.01284782    13
STARLINK-36198          
1 67167U 25303E   25351.60835648 -.00002699  85337-5  00000+0 0  9993
2 67167  43.0100  69.0834 0011500 323.6500   9.4800 16.01284782    14
STARLINK-35903          
1 67168U 25303F   25351.60835648 -.00002699  85337-5  00000+0 0  9994
2 67168  43.0100  69.0834 0011500 323.6500   9.4800 16.01284782    15
STARLINK-35839          
1 67169U 25303G   25351.60835648 -.00002699  85337-5  00000+0 0  9995
2 67169  43.0100  69.0834 0011500 323.6500   9.4800 16.01284782    16
STARLINK-35863          
1 67170U 25303H   25351.60835648 -.00002699  85337-5  00000+0 0  9997
2 67170  43.0100  69.0834 0011500 323.6500   9.4800 16.01284782    18
STARLINK-35771          
1 67171U 25303J   25351.60835648 -.00002699  85337-5  00000+0 0  9998
2 67171  43.0100  69.0834 0011500 323.6500   9.4800 16.01284782    19
